STARLINK-4620           
1 53674U 22105AC  26068.67089911 -.00000083  00000+0 -19341-5 0  9993
2 53674  97.6010 310.1957 0004111  45.2183 314.9376 15.01259647193237
PICO-02A021             
1 60538U 24149BY  26068.15390193  .00008488  00000+0  64833-3 0  9999
2 60538  97.6823 147.9080 0004195   9.5557 350.5747 15.02201963 84718
